{
  "type": "FeatureCollection",
  "features": [
    {
      "type": "Feature",
      "properties": {
        "name": "Marjal dels Moros",
        "description": "Study area boundary - 10km radius around Marjal dels Moros wetland",
        "location": "Valencia, Spain"
      },
      "geometry": {
        "type": "Polygon",
        "coordinates": [
          [
            [-0.3600, 39.6900],
            [-0.3400, 39.6920],
            [-0.3200, 39.6900],
            [-0.3050, 39.6850],
            [-0.2900, 39.6750],
            [-0.2800, 39.6620],
            [-0.2750, 39.6480],
            [-0.2750, 39.6350],
            [-0.2800, 39.6200],
            [-0.2900, 39.6080],
            [-0.3050, 39.5980],
            [-0.3200, 39.5930],
            [-0.3400, 39.5910],
            [-0.3600, 39.5930],
            [-0.3780, 39.5980],
            [-0.3920, 39.6080],
            [-0.4020, 39.6200],
            [-0.4080, 39.6350],
            [-0.4080, 39.6480],
            [-0.4020, 39.6620],
            [-0.3920, 39.6750],
            [-0.3780, 39.6850],
            [-0.3600, 39.6900]
          ]
        ]
      }
    }
  ]
}
